{
    "links": {
        "self": "http://www.neowsapp.com/rest/v1/neo/3457389?api_key=iIulBulltgU6a56xZRHN4H3l9WmuAYTsLGpBGhQ2"
    },
    "id": "3457389",
    "neo_reference_id": "3457389",
    "name": "(2009 HF)",
    "designation": "2009 HF",
    "nasa_jpl_url": "http://ssd.jpl.nasa.gov/sbdb.cgi?sstr=3457389",
    "absolute_magnitude_h": 22.7,
    "estimated_diameter": {
        "kilometers": {
            "estimated_diameter_min": 0.0766575574,
            "estimated_diameter_max": 0.1714115092
        },
        "meters": {
            "estimated_diameter_min": 76.6575573531,
            "estimated_diameter_max": 171.4115092306
        },
        "miles": {
            "estimated_diameter_min": 0.0476327831,
            "estimated_diameter_max": 0.1065101409
        },
        "feet": {
            "estimated_diameter_min": 251.5011804664,
            "estimated_diameter_max": 562.3737359442
        }
    },
    "is_potentially_hazardous_asteroid": false,
    "close_approach_data": [
        {
            "close_approach_date": "2007-04-19",
            "close_approach_date_full": "2007-Apr-19 14:23",
            "epoch_date_close_approach": 1176992580000,
            "relative_velocity": {
                "kilometers_per_second": "17.5301669107",
                "kilometers_per_hour": "63108.600878556",
                "miles_per_hour": "39213.2303625672"
            },
            "miss_distance": {
                "astronomical": "0.196602719",
                "lunar": "76.478457691",
                "kilometers": "29411347.99860853",
                "miles": "18275364.206436514"
            },
            "orbiting_body": "Earth"
        },
        {
            "close_approach_date": "2008-11-19",
            "close_approach_date_full": "2008-Nov-19 23:22",
            "epoch_date_close_approach": 1227136920000,
            "relative_velocity": {
                "kilometers_per_second": "9.8120668123",
                "kilometers_per_hour": "35323.4405244006",
                "miles_per_hour": "21948.6122525088"
            },
            "miss_distance": {
                "astronomical": "0.4250327052",
                "lunar": "165.3377223228",
                "kilometers": "63583987.378257924",
                "miles": "39509257.6882263912"
            },
            "orbiting_body": "Earth"
        },
        {
            "close_approach_date": "2009-04-08",
            "close_approach_date_full": "2009-Apr-08 13:34",
            "epoch_date_close_approach": 1239197640000,
            "relative_velocity": {
                "kilometers_per_second": "12.7538349177",
                "kilometers_per_hour": "45913.8057038464",
                "miles_per_hour": "28529.0533274816"
            },
            "miss_distance": {
                "astronomical": "0.0825231745",
                "lunar": "32.1015148805",
                "kilometers": "12345291.130838315",
                "miles": "7671008.199326147"
            },
            "orbiting_body": "Earth"
        },
        {
            "close_approach_date": "2010-12-02",
            "close_approach_date_full": "2010-Dec-02 10:52",
            "epoch_date_close_approach": 1291287120000,
            "relative_velocity": {
                "kilometers_per_second": "9.9457731903",
                "kilometers_per_hour": "35804.7834850248",
                "miles_per_hour": "22247.7000493478"
            },
            "miss_distance": {
                "astronomical": "0.2965809034",
                "lunar": "115.3699714226",
                "kilometers": "44367871.431315758",
                "miles": "27568916.9197551404"
            },
            "orbiting_body": "Earth"
        }
    ],
    "orbital_data": {
        "orbit_id": "9",
        "orbit_determination_date": "2017-04-06 09:00:48",
        "first_observation_date": "2009-04-17",
        "last_observation_date": "2009-04-25",
        "data_arc_in_days": 8,
        "observations_used": 30,
        "orbit_uncertainty": "8",
        "minimum_orbit_intersection": ".0747455",
        "jupiter_tisserand_invariant": "4.260",
        "epoch_osculation": "2454941.5",
        "eccentricity": ".4256169201544798",
        "semi_major_axis": "1.569355806743456",
        "inclination": "18.17378521150715",
        "ascending_node_longitude": "29.35403318397476",
        "orbital_period": "718.0927712092177",
        "perihelion_distance": ".9014114216507572",
        "perihelion_argument": "111.3857375648011",
        "aphelion_distance": "2.237300191836155",
        "perihelion_time": "2454881.771468072491",
        "mean_anomaly": "29.9435843890963",
        "mean_motion": ".5013279821683558",
        "equinox": "J2000",
        "orbit_class": {
            "orbit_class_type": "APO",
            "orbit_class_description": "Near-Earth asteroid orbits which cross the Earth’s orbit similar to that of 1862 Apollo",
            "orbit_class_range": "a (semi-major axis) > 1.0 AU; q (perihelion) < 1.017 AU"
        }
    },
    "is_sentry_object": false
}